QIANFAN-81              
1 63167U 25046J   25310.79040442  .00000126  00000+0  17668-3 0  9990
2 63167  88.9759 323.5967 0013435 218.9194 141.0991 13.50992655 42631
QIANFAN-82              
1 63168U 25046K   25310.74979362  .00000084  00000+0  11234-3 0  9994
2 63168  88.9759 323.6446 0011391 226.9523 133.0675 13.50973562 42613
QIANFAN-83              
1 63169U 25046L   25310.77338872  .00000068  00000+0  72029-4 0  9995
2 63169  88.9760 323.4892 0012961 213.2592 146.7752 13.61967420 42703
QIANFAN-84              
1 63170U 25046M   25310.77788625 -.00000028  00000+0 -61546-4 0  9992
2 63170  88.9758 323.7745 0014452 224.3519 135.6475 13.50986688 42547
QIANFAN-85              
1 63171U 25046N   25310.77443166  .00000124  00000+0  17297-3 0  9999
2 63171  88.9759 323.6468 0011757 225.8499 134.1687 13.50977621 42612
QIANFAN-86              
1 63172U 25046P   25310.78272211  .00000116  00000+0  16041-3 0  9999
2 63172  88.9761 323.5072 0009549 229.5313 130.5006 13.50974924 42694
QIANFAN-87              
1 63173U 25046Q   25310.75393272  .00000013  00000+0  13512-5 0  9996
2 63173  88.9757 323.6233 0010314 224.3949 135.6376 13.50969897 42622
QIANFAN-88              
1 63174U 25046R   25310.77039330  .00000096  00000+0  13047-3 0  9993
2 63174  88.9760 323.5751 0010545 233.6625 126.3553 13.50972789 42652
